start=new Date('2023-04-15T00:00:00.000Z').valueOf();
sats=[{"ELEMENT_SET_NO":"999","PERIAPSIS":"569.902","RCS_SIZE":"LARGE","MEAN_ELEMENT_THEORY":"SGP4","MEAN_MOTION_DDOT":"0.0000000000000","EPOCH":"2023-04-14T07:33:39.837024","NORAD_CAT_ID":"49148","EPHEMERIS_TYPE":"0","GP_ID":"230057305","CENTER_NAME":"EARTH","TLE_LINE2":"2 49148  70.0005  68.0224 0003077 269.8092  90.2715 14.98335688 87638","REV_AT_EPOCH":"8763","MEAN_MOTION":"14.98335688","OBJECT_TYPE":"PAYLOAD","FILE":"3887333","DECAY_DATE":null,"ECCENTRICITY":"0.00030770","TLE_LINE1":"1 49148U 21082U   23104.31504441  .00001582  00000-0  14034-3 0  9992","RA_OF_ASC_NODE":"68.0224","ARG_OF_PERICENTER":"269.8092","SEMIMAJOR_AXIS":"6950.175","OBJECT_NAME":"STARLINK-3048","PERIOD":"96.107","APOAPSIS":"574.179","COUNTRY_CODE":"US","CLASSIFICATION_TYPE":"U","MEAN_ANOMALY":"90.2715","INCLINATION":"70.0005","SITE":"AFWTR","LAUNCH_DATE":"2021-09-14","BSTAR":"0.00014034000000","MEAN_MOTION_DOT":"0.00001582","TIME_SYSTEM":"UTC","OBJECT_ID":"2021-082U","REF_FRAME":"TEME"},{"BSTAR":"0.00002305200000","MEAN_MOTION_DOT":"0.00000182","LAUNCH_DATE":"2021-09-14","REF_FRAME":"TEME","OBJECT_ID":"2021-082V","TIME_SYSTEM":"UTC","SEMIMAJOR_AXIS":"6950.192","OBJECT_NAME":"STARLINK-3053","ARG_OF_PERICENTER":"273.4961","PERIOD":"96.107","APOAPSIS":"574.044","ECCENTRICITY":"0.00028590","RA_OF_ASC_NODE":"87.1046","TLE_LINE1":"1 49149U 21082V   23104.68246280  .00000182  00000-0  23052-4 0  9993","INCLINATION":"69.9992","SITE":"AFWTR","COUNTRY_CODE":"US","MEAN_ANOMALY":"86.5872","CLASSIFICATION_TYPE":"U","CENTER_NAME":"EARTH","TLE_LINE2":"2 49149  69.9992  87.1046 0002859 273.4961  86.5872 14.98330357 88404","GP_ID":"230063317","DECAY_DATE":null,"FILE":"3887391","REV_AT_EPOCH":"8840","OBJECT_TYPE":"PAYLOAD","MEAN_MOTION":"14.98330357","MEAN_ELEMENT_THEORY":"SGP4","RCS_SIZE":"LARGE","PERIAPSIS":"570.070","ELEMENT_SET_NO":"999","EPOCH":"2023-04-14T16:22:44.785920","NORAD_CAT_ID":"49149","EPHEMERIS_TYPE":"0","MEAN_MOTION_DDOT":"0.0000000000000"},{"MEAN_ELEMENT_THEORY":"SGP4","RCS_SIZE":"LARGE","PERIAPSIS":"570.094","ELEMENT_SET_NO":"999","NORAD_CAT_ID":"49150","EPOCH":"2023-04-14T16:16:44.837472","EPHEMERIS_TYPE":"0","MEAN_MOTION_DDOT":"0.0000000000000","CENTER_NAME":"EARTH","TLE_LINE2":"2 49150  69.9989  87.1182 0002790 274.6954  85.3887 14.98337975 88408","GP_ID":"230063240","DECAY_DATE":null,"FILE":"3887391","REV_AT_EPOCH":"8840","OBJECT_TYPE":"PAYLOAD","MEAN_MOTION":"14.98337975","OBJECT_NAME":"STARLINK-3104","SEMIMAJOR_AXIS":"6950.168","ARG_OF_PERICENTER":"274.6954","PERIOD":"96.106","APOAPSIS":"573.972","ECCENTRICITY":"0.00027900","RA_OF_ASC_NODE":"87.1182","TLE_LINE1":"1 49150U 21082W   23104.67829673  .00002185  00000-0  19080-3 0  9997","INCLINATION":"69.9989","SITE":"AFWTR","COUNTRY_CODE":"US","CLASSIFICATION_TYPE":"U","MEAN_ANOMALY":"85.3887","MEAN_MOTION_DOT":"0.00002185","BSTAR":"0.00019080000000","LAUNCH_DATE":"2021-09-14","REF_FRAME":"TEME","OBJECT_ID":"2021-082W","TIME_SYSTEM":"UTC"},{"BSTAR":"0.00010921000000","MEAN_MOTION_DOT":"0.00001210","LAUNCH_DATE":"2021-09-14","OBJECT_ID":"2021-082X","REF_FRAME":"TEME","TIME_SYSTEM":"UTC","PERIOD":"96.107","APOAPSIS":"574.055","ARG_OF_PERICENTER":"265.5581","OBJECT_NAME":"STARLINK-3102","SEMIMAJOR_AXIS":"6950.177","TLE_LINE1":"1 49151U 21082X   23104.22719086  .00001210  00000-0  10921-3 0  9998","RA_OF_ASC_NODE":"48.2544","ECCENTRICITY":"0.00028960","SITE":"AFWTR","INCLINATION":"70.0016","MEAN_ANOMALY":"94.5248","CLASSIFICATION_TYPE":"U","COUNTRY_CODE":"US","TLE_LINE2":"2 49151  70.0016  48.2544 0002896 265.5581  94.5248 14.98335047 89317","CENTER_NAME":"EARTH","GP_ID":"230057556","FILE":"3887333","DECAY_DATE":null,"MEAN_MOTION":"14.98335047","OBJECT_TYPE":"PAYLOAD","REV_AT_EPOCH":"8931","RCS_SIZE":"LARGE","MEAN_ELEMENT_THEORY":"SGP4","ELEMENT_SET_NO":"999","PERIAPSIS":"570.030","EPHEMERIS_TYPE":"0","NORAD_CAT_ID":"49151","EPOCH":"2023-04-14T05:27:09.290304","MEAN_MOTION_DDOT":"0.0000000000000"},{"REV_AT_EPOCH":"8924","MEAN_MOTION":"14.98338189","OBJECT_TYPE":"PAYLOAD","FILE":"3887333","DECAY_DATE":null,"GP_ID":"230057807","CENTER_NAME":"EARTH","TLE_LINE2":"2 49152  70.0013  48.1418 0002771 265.9397  94.1446 14.98338189 89243","MEAN_MOTION_DDOT":"0.0000000000000","EPOCH":"2023-04-14T06:27:14.100480","NORAD_CAT_ID":"49152","EPHEMERIS_TYPE":"0","ELEMENT_SET_NO":"999","PERIAPSIS":"570.107","RCS_SIZE":"LARGE","MEAN_ELEMENT_THEORY":"SGP4","TIME_SYSTEM":"UTC","OBJECT_ID":"2021-082Y","REF_FRAME":"TEME","LAUNCH_DATE":"2021-09-14","BSTAR":"0.00013664000000","MEAN_MOTION_DOT":"0.00001538","COUNTRY_CODE":"US","CLASSIFICATION_TYPE":"U","MEAN_ANOMALY":"94.1446","INCLINATION":"70.0013","SITE":"AFWTR","ECCENTRICITY":"0.00027710","TLE_LINE1":"1 49152U 21082Y   23104.26891320  .00001538  00000-0  13664-3 0  9995","RA_OF_ASC_NODE":"48.1418","ARG_OF_PERICENTER":"265.9397","OBJECT_NAME":"STARLINK-3081","SEMIMAJOR_AXIS":"6950.168","APOAPSIS":"573.958","PERIOD":"96.106"},{"FILE":"3887563","DECAY_DATE":null,"REV_AT_EPOCH":"8821","OBJECT_TYPE":"PAYLOAD","MEAN_MOTION":"14.98331639","CENTER_NAME":"EARTH","TLE_LINE2":"2 49153  70.0018  46.4319 0002864 265.8463  94.2368 14.98331639 88219","GP_ID":"230067154","NORAD_CAT_ID":"49153","EPOCH":"2023-04-14T22:52:37.436448","EPHEMERIS_TYPE":"0","MEAN_MOTION_DDOT":"0.0000000000000","RCS_SIZE":"LARGE","MEAN_ELEMENT_THEORY":"SGP4","ELEMENT_SET_NO":"999","PERIAPSIS":"570.062","OBJECT_ID":"2021-082Z","REF_FRAME":"TEME","TIME_SYSTEM":"UTC","MEAN_MOTION_DOT":"0.00000337","BSTAR":"0.00003601500000","LAUNCH_DATE":"2021-09-14","INCLINATION":"70.0018","SITE":"AFWTR","COUNTRY_CODE":"US","CLASSIFICATION_TYPE":"U","MEAN_ANOMALY":"94.2368","ARG_OF_PERICENTER":"265.8463","OBJECT_NAME":"STARLINK-3072","SEMIMAJOR_AXIS":"6950.188","PERIOD":"96.107","APOAPSIS":"574.043","ECCENTRICITY":"0.00028640","TLE_LINE1":"1 49153U 21082Z   23104.95321107  .00000337  00000-0  36015-4 0  9995","RA_OF_ASC_NODE":"46.4319"},{"INCLINATION":"70.0003","SITE":"AFWTR","COUNTRY_CODE":"US","CLASSIFICATION_TYPE":"U","MEAN_ANOMALY":"90.0752","OBJECT_NAME":"STARLINK-3068","SEMIMAJOR_AXIS":"6950.178","ARG_OF_PERICENTER":"270.0063","APOAPSIS":"574.129","PERIOD":"96.107","ECCENTRICITY":"0.00030010","RA_OF_ASC_NODE":"68.0367","TLE_LINE1":"1 49154U 21082AA  23104.31087357  .00001491  00000-0  13274-3 0  9995","REF_FRAME":"TEME","OBJECT_ID":"2021-082AA","TIME_SYSTEM":"UTC","MEAN_MOTION_DOT":"0.00001491","BSTAR":"0.00013274000000","LAUNCH_DATE":"2021-09-14","NORAD_CAT_ID":"49154","EPOCH":"2023-04-14T07:27:39.476448","EPHEMERIS_TYPE":"0","MEAN_MOTION_DDOT":"0.0000000000000","MEAN_ELEMENT_THEORY":"SGP4","RCS_SIZE":"LARGE","PERIAPSIS":"569.957","ELEMENT_SET_NO":"999","DECAY_DATE":null,"FILE":"3887333","REV_AT_EPOCH":"8871","MEAN_MOTION":"14.98334831","OBJECT_TYPE":"PAYLOAD","CENTER_NAME":"EARTH","TLE_LINE2":"2 49154  70.0003  68.0367 0003001 270.0063  90.0752 14.98334831 88718","GP_ID":"230056804"},{"RCS_SIZE":"LARGE","MEAN_ELEMENT_THEORY":"SGP4","ELEMENT_SET_NO":"999","PERIAPSIS":"569.938","NORAD_CAT_ID":"49155","EPOCH":"2023-04-14T06:45:15.768000","EPHEMERIS_TYPE":"0","MEAN_MOTION_DDOT":"0.0000000000000","CENTER_NAME":"EARTH","TLE_LINE2":"2 49155  70.0006  48.1269 0003028 268.5931  91.4881 14.98334911 89209","GP_ID":"230057055","FILE":"3887333","DECAY_DATE":null,"REV_AT_EPOCH":"8920","MEAN_MOTION":"14.98334911","OBJECT_TYPE":"PAYLOAD","ARG_OF_PERICENTER":"268.5931","SEMIMAJOR_AXIS":"6950.178","OBJECT_NAME":"STARLINK-3060","APOAPSIS":"574.147","PERIOD":"96.107","ECCENTRICITY":"0.00030280","TLE_LINE1":"1 49155U 21082AB  23104.28143250  .00002355  00000-0  20507-3 0  9994","RA_OF_ASC_NODE":"48.1269","INCLINATION":"70.0006","SITE":"AFWTR","COUNTRY_CODE":"US","MEAN_ANOMALY":"91.4881","CLASSIFICATION_TYPE":"U","BSTAR":"0.00020507000000","MEAN_MOTION_DOT":"0.00002355","LAUNCH_DATE":"2021-09-14","OBJECT_ID":"2021-082AB","REF_FRAME":"TEME","TIME_SYSTEM":"UTC"},{"GP_ID":"230057306","TLE_LINE2":"2 49156  70.0017  48.1698 0002798 265.9883  94.0956 14.98330112 89209","CENTER_NAME":"EARTH","OBJECT_TYPE":"PAYLOAD","MEAN_MOTION":"14.98330112","REV_AT_EPOCH":"8920","FILE":"3887333","DECAY_DATE":null,"ELEMENT_SET_NO":"999","PERIAPSIS":"570.113","RCS_SIZE":"LARGE","MEAN_ELEMENT_THEORY":"SGP4","MEAN_MOTION_DDOT":"0.0000000000000","EPHEMERIS_TYPE":"0","EPOCH":"2023-04-14T06:15:13.741344","NORAD_CAT_ID":"49156","LAUNCH_DATE":"2021-09-14","BSTAR":"0.00014240000000","MEAN_MOTION_DOT":"0.00001607","TIME_SYSTEM":"UTC","OBJECT_ID":"2021-082AC","REF_FRAME":"TEME","TLE_LINE1":"1 49156U 21082AC  23104.26057571  .00001607  00000-0  14240-3 0  9999","RA_OF_ASC_NODE":"48.1698","ECCENTRICITY":"0.00027980","PERIOD":"96.107","APOAPSIS":"574.002","ARG_OF_PERICENTER":"265.9883","OBJECT_NAME":"STARLINK-3085","SEMIMAJOR_AXIS":"6950.193","CLASSIFICATION_TYPE":"U","MEAN_ANOMALY":"94.0956","COUNTRY_CODE":"US","SITE":"AFWTR","INCLINATION":"70.0017"},{"DECAY_DATE":null,"FILE":"3887421","REV_AT_EPOCH":"8878","MEAN_MOTION":"14.98321774","OBJECT_TYPE":"PAYLOAD","CENTER_NAME":"EARTH","TLE_LINE2":"2 49157  70.0014  67.2091 0002310 266.6633  93.4262 14.98321774 88786","GP_ID":"230063957","NORAD_CAT_ID":"49157","EPOCH":"2023-04-14T15:22:19.894656","EPHEMERIS_TYPE":"0","MEAN_MOTION_DDOT":"0.0000000000000","MEAN_ELEMENT_THEORY":"SGP4","RCS_SIZE":"LARGE","PERIAPSIS":"570.478","ELEMENT_SET_NO":"999","REF_FRAME":"TEME","OBJECT_ID":"2021-082AD","TIME_SYSTEM":"UTC","MEAN_MOTION_DOT":"0.00002598","BSTAR":"0.00022549000000","LAUNCH_DATE":"2021-09-14","INCLINATION":"70.0014","SITE":"AFWTR","COUNTRY_CODE":"US","CLASSIFICATION_TYPE":"U","MEAN_ANOMALY":"93.4262","SEMIMAJOR_AXIS":"6950.218","OBJECT_NAME":"STARLINK-3051","ARG_OF_PERICENTER":"266.6633","APOAPSIS":"573.689","PERIOD":"96.108","ECCENTRICITY":"0.00023100","RA_OF_ASC_NODE":"67.2091","TLE_LINE1":"1 49157U 21082AD  23104.64050804  .00002598  00000-0  22549-3 0  9995"}];
